*******************************************************************************
JPL/HORIZONS                 120348 (2004 TY364)           2013-Dec-01 19:32:04
Rec #:120348 (+COV)   Soln.date: 2013-Aug-07_01:51:32     # obs: 20 (1983-2005)
 
FK5/J2000.0 helio. ecliptic osc. elements (au, days, deg., period=Julian yrs): 
 
  EPOCH=  2452162.5 ! 2001-Sep-10.00 (CT)          Residual RMS= .31088        
   EC= .06579515711126427  QR= 36.46379309474909   TP= 2479192.6601079078      
   OM= 140.5775485430296   W=  353.7268971356329   IN= 24.85489858060014       
   A= 39.03190330505699    MA= 250.749584275717    ADIST= 41.60001351536489    
   PER= 243.85845          N= .004041797           ANGMOM= .107238131          
   DAN= 36.47728           DDN= 41.58248           L= 134.8814863              
   B= -2.6323784           MOID= 35.47890091       TP= 2075-Sep-12.1601079078  
 
Asteroid physical parameters (km, seconds, rotational period in hours):        
   GM= n.a.                RAD= n.a.               ROTPER= 11.7                
   H= 4.5                  G= .150                 B-V= n.a.                   
                           ALBEDO= n.a.            STYP= n.a.                  
 
ASTEROID comments: 
1: soln ref.= JPL#3, OCC=3
2: source=ORB
*******************************************************************************
 

 

*******************************************************************************
Ephemeris / WWW_USER Sun Dec  1 19:32:04 2013 Pasadena, USA      / Horizons    
*******************************************************************************
Target body name: 120348 (2004 TY364)             {source: JPL#3}
Center body name: Earth (399)                     {source: DE-0431LE-0431}
Center-site name: San Pedro Martir
*******************************************************************************
Start time      : A.D. 2013-Jan-01 00:00:00.0000 UT      
Stop  time      : A.D. 2014-Dec-31 00:00:00.0000 UT      
Step-size       : 1440 minutes
*******************************************************************************
Target pole/equ : No model available
Target radii    : (unavailable)                                                
Center geodetic : 244.536700,31.0434585,2.8281109 {E-lon(deg),Lat(deg),Alt(km)}
Center cylindric: 244.536700,5471.93108,3271.4810 {E-lon(deg),Dxy(km),Dz(km)}
Center pole/equ : High-precision EOP model        {East-longitude +}
Center radii    : 6378.1 x 6378.1 x 6356.8 km     {Equator, meridian, pole}    
Target primary  : Sun
Vis. interferer : MOON (R_eq= 1737.400) km        {source: DE-0431LE-0431}
Rel. light bend : Sun, EARTH                      {source: DE-0431LE-0431}
Rel. lght bnd GM: 1.3271E+11, 3.9860E+05 km^3/s^2                              
Small-body perts: Yes                             {source: SB431-BIG16}
Atmos refraction: NO (AIRLESS)
RA format       : DEG
Time format     : BOTH
EOP file        : eop.131128.p140219                                           
EOP coverage    : DATA-BASED 1962-JAN-20 TO 2013-NOV-28. PREDICTS-> 2014-FEB-18
Units conversion: 1 au= 149597870.700 km, c= 299792.458 km/s, 1 day= 86400.0 s 
Table cut-offs 1: Elevation (-90.0deg=NO ),Airmass (>38.000=NO), Daylight (NO )
Table cut-offs 2: Solar Elongation (  0.0,180.0=NO ),Local Hour Angle( 0.0=NO )
*******************************************************************************
Initial FK5/J2000.0 heliocentric ecliptic osculating elements (au, days, deg.):
  EPOCH=  2452162.5 ! 2001-Sep-10.00 (CT)          Residual RMS= .31088        
   EC= .06579515711126427  QR= 36.46379309474909   TP= 2479192.6601079078      
   OM= 140.5775485430296   W=  353.7268971356329   IN= 24.85489858060014       
Asteroid physical parameters (km, seconds, rotational period in hours):        
   GM= n.a.                RAD= n.a.               ROTPER= 11.7                
   H= 4.5                  G= .150                 B-V= n.a.                   
                           ALBEDO= n.a.            STYP= n.a.                  
************************************************************************************************************
 Date__(UT)__HR:MN Date_________JDUT     R.A._(J2000.0)_DEC. dRA*cosD d(DEC)/dt            delta      deldot
************************************************************************************************************
$$SOE
 2013-Apr-13 00:00 2456395.500000000 *m   38.50211  -9.45041 3.835461  1.602595 40.2225952298151   5.0291170
 2013-Apr-14 00:00 2456396.500000000 *m   38.52831  -9.43981 3.853203  1.582987 40.2252040870611   4.5857029
 2013-Apr-15 00:00 2456397.500000000 *m   38.55462  -9.42934 3.869983  1.563007 40.2275541043977   4.1415950
 2013-Apr-16 00:00 2456398.500000000 *m   38.58103  -9.41901 3.885806  1.542665 40.2296449834998   3.6969797
 2013-Apr-17 00:00 2456399.500000000 *m   38.60754  -9.40881 3.900678  1.521973 40.2314765311223   3.2520327
 2013-Apr-18 00:00 2456400.500000000 *m   38.63414  -9.39875 3.914606  1.500942 40.2330486534396   2.8069208
 2013-Apr-19 00:00 2456401.500000000 *m   38.66083  -9.38884 3.927598  1.479581 40.2343613517531   2.3618043
 2013-Apr-20 00:00 2456402.500000000 *m   38.68760  -9.37906 3.939664  1.457903 40.2354147186984   1.9168369
 2013-Apr-21 00:00 2456403.500000000 *m   38.71444  -9.36944 3.950815  1.435916 40.2362089335462   1.4721620
 2013-Apr-22 00:00 2456404.500000000 *m   38.74135  -9.35996 3.961066  1.413631 40.2367442547378   1.0279068
 2013-Apr-23 00:00 2456405.500000000 *m   38.76832  -9.35063 3.970433  1.391057 40.2370210076126   0.5841718
 2013-Apr-24 00:00 2456406.500000000 *    38.79535  -9.34146 3.978934  1.368202 40.2370395657211   0.1410194
 2013-Apr-25 00:00 2456407.500000000 *    38.82243  -9.33243 3.986589  1.345070 40.2368003256123  -0.3015362
 2013-Apr-26 00:00 2456408.500000000 *    38.84954  -9.32357 3.993412  1.321662 40.2363036777089  -0.7435318
 2013-Apr-27 00:00 2456409.500000000 *    38.87670  -9.31485 3.999415  1.297976 40.2355499791071  -1.1850452
 2013-Apr-28 00:00 2456410.500000000 *    38.90389  -9.30630 4.004598  1.274007 40.2345395360499  -1.6261717
 2013-Apr-29 00:00 2456411.500000000 *    38.93111  -9.29791 4.008952  1.249746 40.2332726024653  -2.0669936
 2013-Apr-30 00:00 2456412.500000000 *    38.95834  -9.28969 4.012461  1.225187 40.2317493961475  -2.5075515
 2013-May-01 00:00 2456413.500000000 *    38.98560  -9.28163 4.015103  1.200326 40.2299701283350  -2.9478275
 2013-May-02 00:00 2456414.500000000 *    39.01286  -9.27373 4.016855  1.175161 40.2279350389439  -3.3877425
 2013-May-03 00:00 2456415.500000000 *    39.04012  -9.26601 4.017694  1.149692 40.2256444300082  -3.8271641
 2013-May-04 00:00 2456416.500000000 *    39.06739  -9.25845 4.017599  1.123926 40.2230986927689  -4.2659195
 2013-May-05 00:00 2456417.500000000 *    39.09464  -9.25107 4.016555  1.097867 40.2202983270843  -4.7038088
 2013-May-06 00:00 2456418.500000000 *    39.12188  -9.24386 4.014550  1.071527 40.2172439539368  -5.1406154
 2013-May-07 00:00 2456419.500000000 *    39.14909  -9.23683 4.011575  1.044914 40.2139363225255  -5.5761144
 2013-May-08 00:00 2456420.500000000 *m   39.17628  -9.22998 4.007626  1.018041 40.2103763132726  -6.0100786
 2013-May-09 00:00 2456421.500000000 *m   39.20343  -9.22331 4.002701  0.990920 40.2065649376159  -6.4422835
 2013-May-10 00:00 2456422.500000000 *m   39.23054  -9.21682 3.996803  0.963564 40.2025033351173  -6.8725117
 2013-May-11 00:00 2456423.500000000 *m   39.25760  -9.21052 3.989938  0.935987 40.1981927683269  -7.3005564
 2013-May-12 00:00 2456424.500000000 *m   39.28460  -9.20439 3.982111  0.908200 40.1936346159461  -7.7262236
 2013-May-13 00:00 2456425.500000000 *m   39.31155  -9.19846 3.973332  0.880218 40.1888303649981  -8.1493332
 2013-May-14 00:00 2456426.500000000 *m   39.33842  -9.19271 3.963613  0.852051 40.1837816027903  -8.5697190
 2013-May-15 00:00 2456427.500000000 *m   39.36522  -9.18715 3.952964  0.823713 40.1784900093503  -8.9872267
 2013-May-16 00:00 2456428.500000000 *m   39.39194  -9.18178 3.941399  0.795213 40.1729573507456  -9.4017132
 2013-May-17 00:00 2456429.500000000 *m   39.41857  -9.17661 3.928930  0.766564 40.1671854732786  -9.8130446
 2013-May-18 00:00 2456430.500000000 *m   39.44511  -9.17162 3.915573  0.737776 40.1611762980552 -10.2210966
 2013-May-19 00:00 2456431.500000000 *m   39.47155  -9.16682 3.901345  0.708859 40.1549318148948 -10.6257570
 2013-May-20 00:00 2456432.500000000 *m   39.49789  -9.16222 3.886265  0.679824 40.1484540740437 -11.0269305
 2013-May-21 00:00 2456433.500000000 *m   39.52412  -9.15782 3.870352  0.650680 40.1417451738241 -11.4245482
 2013-May-22 00:00 2456434.500000000 *m   39.55023  -9.15360 3.853630  0.621434 40.1348072425052 -11.8185778
 2013-May-23 00:00 2456435.500000000 *    39.57622  -9.14959 3.836120  0.592091 40.1276424138016 -12.2090346
 2013-May-24 00:00 2456436.500000000 *    39.60208  -9.14577 3.817842  0.562652 40.1202527979205 -12.5959850
 2013-May-25 00:00 2456437.500000000 *    39.62781  -9.14214 3.798809  0.533114 40.1126404537108 -12.9795379
 2013-May-26 00:00 2456438.500000000 *    39.65341  -9.13872 3.779024  0.503471 40.1048073705259 -13.3598200
 2013-May-27 00:00 2456439.500000000 *    39.67886  -9.13549 3.758479  0.473716 40.0967554681708 -13.7369394
 2013-May-28 00:00 2456440.500000000 *    39.70416  -9.13246 3.737158  0.443843 40.0884866181488 -14.1109504
 2013-May-29 00:00 2456441.500000000 *    39.72932  -9.12963 3.715038  0.413846 40.0800026814632 -14.4818335
 2013-May-30 00:00 2456442.500000000 *    39.75431  -9.12700 3.692097  0.383726 40.0713055523908 -14.8494947
 2013-May-31 00:00 2456443.500000000 *    39.77915  -9.12457 3.668315  0.353488 40.0623971974337 -15.2137813
 2013-Jun-01 00:00 2456444.500000000 *    39.80381  -9.12235 3.643678  0.323140 40.0532796830948 -15.5745033
 2013-Jun-02 00:00 2456445.500000000 *    39.82830  -9.12032 3.618177  0.292691 40.0439551915088 -15.9314529
